SENTINEL-2A             
1 40697U 15028A   26196.18672514 -.00000024  00000+0  73158-5 0  9995
2 40697  98.5684 270.6396 0001265  95.1080 265.0247 14.30814152577732
SENTINEL-2B             
1 42063U 17013A   26196.17953597  .00000042  00000+0  32532-4 0  9991
2 42063  98.5692 270.5576 0001197  91.0425 269.0895 14.30815121488642
SENTINEL-2C             
1 60989U 24157A   26196.21451650  .00000045  00000+0  33668-4 0  9997
2 60989  98.5685 270.5987 0000954 104.0012 256.1277 14.30815672 96999
